$$SOE
2460721.500000000, A.D. 2025-Feb-15 00:00:00.0000, -3.842025535451536E+08, -7.655435350748077E+07, -1.301891015738924E+07,
2460728.500000000, A.D. 2025-Feb-22 00:00:00.0000, -3.799178099546798E+08, -8.666540136401807E+07, -1.117277415410871E+07,
2460735.500000000, A.D. 2025-Mar-01 00:00:00.0000, -3.753217649946709E+08, -9.670546226724258E+07, -9.317487073024511E+06,
2460742.500000000, A.D. 2025-Mar-08 00:00:00.0000, -3.704130497445498E+08, -1.066649863033637E+08, -7.454442167217538E+06,
2460749.500000000, A.D. 2025-Mar-15 00:00:00.0000, -3.651905475847282E+08, -1.165341759790957E+08, -5.585087242068388E+06,
2460756.500000000, A.D. 2025-Mar-22 00:00:00.0000, -3.596534153792701E+08, -1.263029863880010E+08, -3.710925551368348E+06,
2460763.500000000, A.D. 2025-Mar-29 00:00:00.0000, -3.538011041888793E+08, -1.359611286566855E+08, -1.833516901865728E+06,
2460770.500000000, A.D. 2025-Apr-05 00:00:00.0000, -3.476333791756750E+08, -1.454980736419065E+08, 4.552127999890596E+04,
2460777.500000000, A.D. 2025-Apr-12 00:00:00.0000, -3.411503405945013E+08, -1.549030558890881E+08, 1.924513125845909E+06,
2460784.500000000, A.D. 2025-Apr-19 00:00:00.0000, -3.343524460116231E+08, -1.641650788586213E+08, 3.801723715032212E+06,
2460791.500000000, A.D. 2025-Apr-26 00:00:00.0000, -3.272405334226350E+08, -1.732729217592895E+08, 5.675358657588094E+06,
2460798.500000000, A.D. 2025-May-03 00:00:00.0000, -3.198158450905618E+08, -1.822151481135987E+08, 7.543563885644048E+06,
2460805.500000000, A.D. 2025-May-10 00:00:00.0000, -3.120800519989079E+08, -1.909801161937571E+08, 9.404425677428342E+06,
2460812.500000000, A.D. 2025-May-17 00:00:00.0000, -3.040352787907550E+08, -1.995559915171106E+08, 1.125597093529508E+07,
2460819.500000000, A.D. 2025-May-24 00:00:00.0000, -2.956841289082608E+08, -2.079307616018929E+08, 1.309616772760057E+07,
2460826.500000000, A.D. 2025-May-31 00:00:00.0000, -2.870297093805951E+08, -2.160922528160504E+08, 1.492292611333521E+07,
2460833.500000000, A.D. 2025-Jun-07 00:00:00.0000, -2.780756555024883E+08, -2.240281482536758E+08, 1.673409941755596E+07,
2460840.500000000, A.D. 2025-Jun-14 00:00:00.0000, -2.688261575831543E+08, -2.317260074394817E+08, 1.852748615312621E+07,
2460847.500000000, A.D. 2025-Jun-21 00:00:00.0000, -2.592859883397991E+08, -2.391732912600375E+08, 2.030083224295773E+07,
2460854.500000000, A.D. 2025-Jun-28 00:00:00.0000, -2.494605275756505E+08, -2.463573904733618E+08, 2.205183343333706E+07,
2460861.500000000, A.D. 2025-Jul-05 00:00:00.0000, -2.393557854008564E+08, -2.532656557380730E+08, 2.377813824646562E+07,
2460868.500000000, A.D. 2025-Jul-12 00:00:00.0000, -2.289784249003639E+08, -2.598854300430304E+08, 2.547735154664122E+07,
2460875.500000000, A.D. 2025-Jul-19 00:00:00.0000, -2.183357837451400E+08, -2.662040841643462E+08, 2.714703868391459E+07,
2460882.500000000, A.D. 2025-Jul-26 00:00:00.0000, -2.074358941990140E+08, -2.722090552317075E+08, 2.878473021639317E+07,
2460889.500000000, A.D. 2025-Aug-02 00:00:00.0000, -1.962875010981387E+08, -2.778878883753107E+08, 3.038792722867414E+07,
2460896.500000000, A.D. 2025-Aug-09 00:00:00.0000, -1.849000774040174E+08, -2.832282814211204E+08, 3.195410726048374E+07,
2460903.500000000, A.D. 2025-Aug-16 00:00:00.0000, -1.732838368613906E+08, -2.882181326056460E+08, 3.348073084496775E+07,
2460910.500000000, A.D. 2025-Aug-23 00:00:00.0000, -1.614497430649323E+08, -2.928455911529427E+08, 3.496524863588628E+07,
2460917.500000000, A.D. 2025-Aug-30 00:00:00.0000, -1.494095141970055E+08, -2.970991098061431E+08, 3.640510914874060E+07,
2460924.500000000, A.D. 2025-Sep-06 00:00:00.0000, -1.371756244468195E+08, -3.009674980620505E+08, 3.779776731537177E+07,
2460931.500000000, A.D. 2025-Sep-13 00:00:00.0000, -1.247613033817452E+08, -3.044399782807426E+08, 3.914069377976672E+07,
2460938.500000000, A.D. 2025-Sep-20 00:00:00.0000, -1.121805296158499E+08, -3.075062459457850E+08, 4.043138446758249E+07,
2460945.500000000, A.D. 2025-Sep-27 00:00:00.0000, -9.944801736528976E+07, -3.101565305346660E+08, 4.166737054328039E+07,
2460952.500000000, A.D. 2025-Oct-04 00:00:00.0000, -8.657919759356976E+07, -3.123816559682099E+08, 4.284622892874211E+07,
2460959.500000000, A.D. 2025-Oct-11 00:00:00.0000, -7.359019385438132E+07, -3.141731010296041E+08, 4.396559327276431E+07,
2460966.500000000, A.D. 2025-Oct-18 00:00:00.0000, -6.049779234098359E+07, -3.155230594196913E+08, 4.502316524228980E+07,
2460973.500000000, A.D. 2025-Oct-25 00:00:00.0000, -4.731940586337966E+07, -3.164244987814822E+08, 4.601672603004199E+07,
2460980.500000000, A.D. 2025-Nov-01 00:00:00.0000, -3.407303165279709E+07, -3.168712179849109E+08, 4.694414797161210E+07,
2460987.500000000, A.D. 2025-Nov-08 00:00:00.0000, -2.077720298709307E+07, -3.168579019833711E+08, 4.780340615257668E+07,
2460994.500000000, A.D. 2025-Nov-15 00:00:00.0000, -7.450934615049490E+06, -3.163801735642911E+08, 4.859258986548527E+07,
2461001.500000000, A.D. 2025-Nov-22 00:00:00.0000, 5.886338195299159E+06, -3.154346410335114E+08, 4.930991376872469E+07,
2461008.500000000, A.D. 2025-Nov-29 00:00:00.0000, 1.921482649865092E+07, -3.140189399701766E+08, 4.995372871979788E+07,
2461015.500000000, A.D. 2025-Dec-06 00:00:00.0000, 3.251445768953232E+07, -3.121317684874056E+08, 5.052253234361038E+07,
2461022.500000000, A.D. 2025-Dec-13 00:00:00.0000, 4.576494858840073E+07, -3.097729187137277E+08, 5.101497888350205E+07,
2461029.500000000, A.D. 2025-Dec-20 00:00:00.0000, 5.894588445231762E+07, -3.069433028840323E+08, 5.142988796618085E+07,
2461036.500000000, A.D. 2025-Dec-27 00:00:00.0000, 7.203680210520039E+07, -3.036449709424034E+08, 5.176625246656796E+07,
2461043.500000000, A.D. 2026-Jan-03 00:00:00.0000, 8.501727491425258E+07, -2.998811198566769E+08, 5.202324544006335E+07,
2461050.500000000, A.D. 2026-Jan-10 00:00:00.0000, 9.786699884144448E+07, -2.956560950092674E+08, 5.220022595009091E+07,
2461057.500000000, A.D. 2026-Jan-17 00:00:00.0000, 1.105658788756063E+08, -2.909753835539029E+08, 5.229674366754385E+07,
2461064.500000000, A.D. 2026-Jan-24 00:00:00.0000, 1.230941149729347E+08, -2.858455996378302E+08, 5.231254215904877E+07,
2461071.500000000, A.D. 2026-Jan-31 00:00:00.0000, 1.354322865764835E+08, -2.802744615540247E+08, 5.224756080609892E+07,
2461078.500000000, A.D. 2026-Feb-07 00:00:00.0000, 1.475614348367112E+08, -2.742707610772824E+08, 5.210193531586319E+07,
2461085.500000000, A.D. 2026-Feb-14 00:00:00.0000, 1.594631418748035E+08, -2.678443253308583E+08, 5.187599679619548E+07,
2461092.500000000, A.D. 2026-Feb-21 00:00:00.0000, 1.711196066101552E+08, -2.610059710602451E+08, 5.157026942534770E+07,
2461099.500000000, A.D. 2026-Feb-28 00:00:00.0000, 1.825137152668674E+08, -2.537674507207842E+08, 5.118546694719355E+07,
2461106.500000000, A.D. 2026-Mar-07 00:00:00.0000, 1.936291037863965E+08, -2.461413929803291E+08, 5.072248807526788E+07,
2461113.500000000, A.D. 2026-Mar-14 00:00:00.0000, 2.044502143116109E+08, -2.381412406989528E+08, 5.018241043205395E+07,
2461120.500000000, A.D. 2026-Mar-21 00:00:00.0000, 2.149623470307653E+08, -2.297811842849335E+08, 4.956648318770707E+07,
2461127.500000000, A.D. 2026-Mar-28 00:00:00.0000, 2.251517049969728E+08, -2.210760902457302E+08, 4.887611877390303E+07,
2461134.500000000, A.D. 2026-Apr-04 00:00:00.0000, 2.350054310656128E+08, -2.120414267740048E+08, 4.811288376861852E+07,
2461141.500000000, A.D. 2026-Apr-11 00:00:00.0000, 2.445116370921446E+08, -2.026931876101219E+08, 4.727848902564329E+07,
2461148.500000000, A.D. 2026-Apr-18 00:00:00.0000, 2.536594255380899E+08, -1.930478150584964E+08, 4.637477916820822E+07,
2461155.500000000, A.D. 2026-Apr-25 00:00:00.0000, 2.624389036331071E+08, -1.831221229862106E+08, 4.540372158139203E+07,
2461162.500000000, A.D. 2026-May-02 00:00:00.0000, 2.708411903297013E+08, -1.729332206335544E+08, 4.436739503538689E+07,
2461169.500000000, A.D. 2026-May-09 00:00:00.0000, 2.788584164729989E+08, -1.624984380444782E+08, 4.326797805626395E+07,
2461176.500000000, A.D. 2026-May-16 00:00:00.0000, 2.864837189439044E+08, -1.518352536497068E+08, 4.210773714912293E+07,
2461183.500000000, A.D. 2026-May-23 00:00:00.0000, 2.937112292815468E+08, -1.409612235773076E+08, 4.088901507598078E+07,
2461190.500000000, A.D. 2026-May-30 00:00:00.0000, 3.005360552156677E+08, -1.298939128939647E+08, 3.961421952075299E+07,
2461197.500000000, A.D. 2026-Jun-06 00:00:00.0000, 3.069542553332565E+08, -1.186508324886916E+08, 3.828581200495316E+07,
2461204.500000000, A.D. 2026-Jun-13 00:00:00.0000, 3.129628111101726E+08, -1.072493817469356E+08, 3.690629682306965E+07,
2461211.500000000, A.D. 2026-Jun-20 00:00:00.0000, 3.185595963893422E+08, -9.570679435221714E+07, 3.547821036125743E+07,
2461218.500000000, A.D. 2026-Jun-27 00:00:00.0000, 3.237433431931765E+08, -8.404008774118565E+07, 3.400411099445406E+07,
2461225.500000000, A.D. 2026-Jul-04 00:00:00.0000, 3.285136044459396E+08, -7.226601709825382E+07, 3.248656955310940E+07,
2461232.500000000, A.D. 2026-Jul-11 00:00:00.0000, 3.328707144168231E+08, -6.040103406320319E+07, 3.092816036777544E+07,
2461239.500000000, A.D. 2026-Jul-18 00:00:00.0000, 3.368157475073169E+08, -4.846125010463225E+07, 2.933145291608076E+07,
2461246.500000000, A.D. 2026-Jul-25 00:00:00.0000, 3.403504759065149E+08, -3.646240447987013E+07, 2.769900409047527E+07,
2461253.500000000, A.D. 2026-Aug-01 00:00:00.0000, 3.434773266253457E+08, -2.441983670577136E+07, 2.603335108909813E+07,
2461260.500000000, A.D. 2026-Aug-08 00:00:00.0000, 3.461993385462015E+08, -1.234846341370143E+07, 2.433700490858476E+07,
2461267.500000000, A.D. 2026-Aug-15 00:00:00.0000, 3.485201202787905E+08, -2.627589417589139E+05, 2.261244443053426E+07,
2461274.500000000, A.D. 2026-Aug-22 00:00:00.0000, 3.504438083965493E+08, 1.182326178391008E+07, 2.086211125880823E+07,
2461281.500000000, A.D. 2026-Aug-29 00:00:00.0000, 3.519750240669823E+08, 2.389605694878527E+07, 1.908840538912488E+07,
2461288.500000000, A.D. 2026-Sep-05 00:00:00.0000, 3.531188304665266E+08, 3.594256551156066E+07, 1.729368125796171E+07,
$$EOE